start=new Date('2022-03-16T00:00:00.000Z').valueOf();
sats=[{"INCLINATION":"53.0555","OBJECT_TYPE":"PAYLOAD","TIME_SYSTEM":"UTC","CLASSIFICATION_TYPE":"U","RCS_SIZE":"LARGE","ECCENTRICITY":"0.00016800","GP_ID":"198848426","MEAN_MOTION":"15.06395327","REF_FRAME":"TEME","BSTAR":"0.00005812500000","LAUNCH_DATE":"2021-05-26","REV_AT_EPOCH":"4454","NORAD_CAT_ID":"48664","COUNTRY_CODE":"US","MEAN_MOTION_DDOT":"0.0000000000000","EPOCH":"2022-03-15T15:44:36.611520","MEAN_ELEMENT_THEORY":"SGP4","PERIAPSIS":"546.064","DECAY_DATE":null,"SEMIMAJOR_AXIS":"6925.363","RA_OF_ASC_NODE":"163.5310","MEAN_ANOMALY":"298.4558","ARG_OF_PERICENTER":"61.6600","FILE":"3360930","OBJECT_NAME":"STARLINK-2709","EPHEMERIS_TYPE":"0","ELEMENT_SET_NO":"999","TLE_LINE2":"2 48664  53.0555 163.5310 0001680  61.6600 298.4558 15.06395327 44545","PERIOD":"95.592","SITE":"AFETR","TLE_LINE1":"1 48664U 21044AC  22074.65597930  .00000584  00000-0  58125-4 0  9990","CENTER_NAME":"EARTH","OBJECT_ID":"2021-044AC","MEAN_MOTION_DOT":"0.00000584","APOAPSIS":"548.391"},{"EPOCH":"2022-03-15T17:40:00.064704","MEAN_ELEMENT_THEORY":"SGP4","PERIAPSIS":"545.757","COUNTRY_CODE":"US","MEAN_MOTION_DDOT":"0.0000000000000","REV_AT_EPOCH":"4455","NORAD_CAT_ID":"48665","RCS_SIZE":"LARGE","ECCENTRICITY":"0.00021260","MEAN_MOTION":"15.06394883","GP_ID":"198849176","REF_FRAME":"TEME","BSTAR":"-0.00051698000000","LAUNCH_DATE":"2021-05-26","CLASSIFICATION_TYPE":"U","INCLINATION":"53.0555","OBJECT_TYPE":"PAYLOAD","TIME_SYSTEM":"UTC","MEAN_MOTION_DOT":"-0.00007973","APOAPSIS":"548.702","CENTER_NAME":"EARTH","OBJECT_ID":"2021-044AD","TLE_LINE1":"1 48665U 21044AD  22074.73611186 -.00007973  00000-0 -51698-3 0  9998","OBJECT_NAME":"STARLINK-2653","FILE":"3360930","EPHEMERIS_TYPE":"0","ELEMENT_SET_NO":"999","TLE_LINE2":"2 48665  53.0555 163.1701 0002126  52.6191 307.4991 15.06394883 44556","PERIOD":"95.592","SITE":"AFETR","ARG_OF_PERICENTER":"52.6191","RA_OF_ASC_NODE":"163.1701","MEAN_ANOMALY":"307.4991","SEMIMAJOR_AXIS":"6925.364","DECAY_DATE":null},{"REV_AT_EPOCH":"4452","NORAD_CAT_ID":"48666","RCS_SIZE":"LARGE","ECCENTRICITY":"0.00014530","MEAN_MOTION":"15.06410383","GP_ID":"198849925","REF_FRAME":"TEME","BSTAR":"-0.00021200000000","LAUNCH_DATE":"2021-05-26","EPOCH":"2022-03-15T13:41:08.209824","PERIAPSIS":"546.175","MEAN_ELEMENT_THEORY":"SGP4","COUNTRY_CODE":"US","MEAN_MOTION_DDOT":"0.0000000000000","INCLINATION":"53.0545","OBJECT_TYPE":"PAYLOAD","TIME_SYSTEM":"UTC","CLASSIFICATION_TYPE":"U","TLE_LINE1":"1 48666U 21044AE  22074.57023391 -.00003439  00000-0 -21200-3 0  9995","EPHEMERIS_TYPE":"0","FILE":"3360930","OBJECT_NAME":"STARLINK-2666","ELEMENT_SET_NO":"999","PERIOD":"95.591","TLE_LINE2":"2 48666  53.0545 163.8985 0001453  52.0501 308.0619 15.06410383 44523","SITE":"AFETR","MEAN_MOTION_DOT":"-0.00003439","APOAPSIS":"548.188","CENTER_NAME":"EARTH","OBJECT_ID":"2021-044AE","SEMIMAJOR_AXIS":"6925.317","DECAY_DATE":null,"ARG_OF_PERICENTER":"52.0501","RA_OF_ASC_NODE":"163.8985","MEAN_ANOMALY":"308.0619"},{"ARG_OF_PERICENTER":"62.1734","MEAN_ANOMALY":"297.9408","RA_OF_ASC_NODE":"163.2334","SEMIMAJOR_AXIS":"6925.336","DECAY_DATE":null,"APOAPSIS":"548.246","MEAN_MOTION_DOT":"-0.00005928","OBJECT_ID":"2021-044AF","CENTER_NAME":"EARTH","TLE_LINE1":"1 48667U 21044AF  22074.71863330 -.00005928  00000-0 -37934-3 0  9993","SITE":"AFETR","PERIOD":"95.592","TLE_LINE2":"2 48667  53.0545 163.2334 0001509  62.1734 297.9408 15.06404061 44559","ELEMENT_SET_NO":"999","FILE":"3360930","OBJECT_NAME":"STARLINK-2735","EPHEMERIS_TYPE":"0","CLASSIFICATION_TYPE":"U","TIME_SYSTEM":"UTC","OBJECT_TYPE":"PAYLOAD","INCLINATION":"53.0545","PERIAPSIS":"546.156","MEAN_ELEMENT_THEORY":"SGP4","EPOCH":"2022-03-15T17:14:49.917120","MEAN_MOTION_DDOT":"0.0000000000000","COUNTRY_CODE":"US","NORAD_CAT_ID":"48667","REV_AT_EPOCH":"4455","LAUNCH_DATE":"2021-05-26","BSTAR":"-0.00037934000000","GP_ID":"198848676","MEAN_MOTION":"15.06404061","REF_FRAME":"TEME","ECCENTRICITY":"0.00015090","RCS_SIZE":"LARGE"},{"ARG_OF_PERICENTER":"53.8581","MEAN_ANOMALY":"306.2541","RA_OF_ASC_NODE":"163.8526","SEMIMAJOR_AXIS":"6925.335","DECAY_DATE":null,"APOAPSIS":"548.194","MEAN_MOTION_DOT":"0.00005767","OBJECT_ID":"2021-044AG","CENTER_NAME":"EARTH","TLE_LINE1":"1 48668U 21044AG  22074.58225172  .00005767  00000-0  40569-3 0  9992","PERIOD":"95.592","TLE_LINE2":"2 48668  53.0551 163.8526 0001435  53.8581 306.2541 15.06404444 44536","SITE":"AFETR","FILE":"3360930","EPHEMERIS_TYPE":"0","OBJECT_NAME":"STARLINK-2738","ELEMENT_SET_NO":"999","CLASSIFICATION_TYPE":"U","OBJECT_TYPE":"PAYLOAD","TIME_SYSTEM":"UTC","INCLINATION":"53.0551","EPOCH":"2022-03-15T13:58:26.548608","PERIAPSIS":"546.206","MEAN_ELEMENT_THEORY":"SGP4","MEAN_MOTION_DDOT":"0.0000000000000","COUNTRY_CODE":"US","NORAD_CAT_ID":"48668","REV_AT_EPOCH":"4453","BSTAR":"0.00040569000000","LAUNCH_DATE":"2021-05-26","ECCENTRICITY":"0.00014350","RCS_SIZE":"LARGE","GP_ID":"198848926","MEAN_MOTION":"15.06404444","REF_FRAME":"TEME"},{"PERIAPSIS":"546.137","MEAN_ELEMENT_THEORY":"SGP4","EPOCH":"2022-03-15T17:04:13.607040","COUNTRY_CODE":"US","MEAN_MOTION_DDOT":"0.0000000000000","REV_AT_EPOCH":"4454","NORAD_CAT_ID":"48669","MEAN_MOTION":"15.06408128","GP_ID":"198849676","REF_FRAME":"TEME","ECCENTRICITY":"0.00015180","RCS_SIZE":"LARGE","LAUNCH_DATE":"2021-05-26","BSTAR":"0.00031848000000","CLASSIFICATION_TYPE":"U","INCLINATION":"53.0531","TIME_SYSTEM":"UTC","OBJECT_TYPE":"PAYLOAD","MEAN_MOTION_DOT":"0.00004466","APOAPSIS":"548.240","CENTER_NAME":"EARTH","OBJECT_ID":"2021-044AH","TLE_LINE1":"1 48669U 21044AH  22074.71126860  .00004466  00000-0  31848-3 0  9997","ELEMENT_SET_NO":"999","EPHEMERIS_TYPE":"0","FILE":"3360930","OBJECT_NAME":"STARLINK-2707","SITE":"AFETR","PERIOD":"95.592","TLE_LINE2":"2 48669  53.0531 163.2597 0001518  75.6021 284.5136 15.06408128 44542","ARG_OF_PERICENTER":"75.6021","RA_OF_ASC_NODE":"163.2597","MEAN_ANOMALY":"284.5136","SEMIMAJOR_AXIS":"6925.324","DECAY_DATE":null},{"APOAPSIS":"548.353","MEAN_MOTION_DOT":"0.00002628","OBJECT_ID":"2021-044AJ","CENTER_NAME":"EARTH","TLE_LINE1":"1 48670U 21044AJ  22074.57490141  .00002628  00000-0  19527-3 0  9997","SITE":"AFETR","TLE_LINE2":"2 48670  53.0533 163.8706 0001611  73.7391 286.3775 15.06392208 44525","PERIOD":"95.593","ELEMENT_SET_NO":"999","FILE":"3360930","OBJECT_NAME":"STARLINK-2763","EPHEMERIS_TYPE":"0","ARG_OF_PERICENTER":"73.7391","MEAN_ANOMALY":"286.3775","RA_OF_ASC_NODE":"163.8706","SEMIMAJOR_AXIS":"6925.372","DECAY_DATE":null,"MEAN_ELEMENT_THEORY":"SGP4","PERIAPSIS":"546.122","EPOCH":"2022-03-15T13:47:51.481824","MEAN_MOTION_DDOT":"0.0000000000000","COUNTRY_CODE":"US","NORAD_CAT_ID":"48670","REV_AT_EPOCH":"4452","LAUNCH_DATE":"2021-05-26","BSTAR":"0.00019527000000","GP_ID":"198849426","MEAN_MOTION":"15.06392208","REF_FRAME":"TEME","ECCENTRICITY":"0.00016110","RCS_SIZE":"LARGE","CLASSIFICATION_TYPE":"U","TIME_SYSTEM":"UTC","OBJECT_TYPE":"PAYLOAD","INCLINATION":"53.0533"},{"ELEMENT_SET_NO":"999","FILE":"3360930","EPHEMERIS_TYPE":"0","OBJECT_NAME":"STARLINK-2745","SITE":"AFETR","TLE_LINE2":"2 48671  53.0548 163.0115 0001414  59.6436 300.4692 15.06388205 44553","PERIOD":"95.593","TLE_LINE1":"1 48671U 21044AK  22074.77025123  .00000729  00000-0  67882-4 0  9992","CENTER_NAME":"EARTH","OBJECT_ID":"2021-044AK","MEAN_MOTION_DOT":"0.00000729","APOAPSIS":"548.229","DECAY_DATE":null,"SEMIMAJOR_AXIS":"6925.385","RA_OF_ASC_NODE":"163.0115","MEAN_ANOMALY":"300.4692","ARG_OF_PERICENTER":"59.6436","GP_ID":"198848177","MEAN_MOTION":"15.06388205","REF_FRAME":"TEME","RCS_SIZE":"LARGE","ECCENTRICITY":"0.00014140","LAUNCH_DATE":"2021-05-26","BSTAR":"0.00006788200000","REV_AT_EPOCH":"4455","NORAD_CAT_ID":"48671","COUNTRY_CODE":"US","MEAN_MOTION_DDOT":"0.0000000000000","PERIAPSIS":"546.270","MEAN_ELEMENT_THEORY":"SGP4","EPOCH":"2022-03-15T18:29:09.706272","INCLINATION":"53.0548","TIME_SYSTEM":"UTC","OBJECT_TYPE":"PAYLOAD","CLASSIFICATION_TYPE":"U"},{"TLE_LINE1":"1 48672U 21044AL  22074.76655585 -.00005817  00000-0 -37209-3 0  9997","ELEMENT_SET_NO":"999","FILE":"3360930","OBJECT_NAME":"STARLINK-2705","EPHEMERIS_TYPE":"0","SITE":"AFETR","TLE_LINE2":"2 48672  53.0544 163.0238 0001268  65.6001 294.5120 15.06383579 44556","PERIOD":"95.593","MEAN_MOTION_DOT":"-0.00005817","APOAPSIS":"548.142","CENTER_NAME":"EARTH","OBJECT_ID":"2021-044AL","SEMIMAJOR_AXIS":"6925.399","DECAY_DATE":null,"ARG_OF_PERICENTER":"65.6001","RA_OF_ASC_NODE":"163.0238","MEAN_ANOMALY":"294.5120","REV_AT_EPOCH":"4455","NORAD_CAT_ID":"48672","GP_ID":"198848427","MEAN_MOTION":"15.06383579","REF_FRAME":"TEME","ECCENTRICITY":"0.00012680","RCS_SIZE":"LARGE","LAUNCH_DATE":"2021-05-26","BSTAR":"-0.00037209000000","PERIAPSIS":"546.386","MEAN_ELEMENT_THEORY":"SGP4","EPOCH":"2022-03-15T18:23:50.425440","COUNTRY_CODE":"US","MEAN_MOTION_DDOT":"0.0000000000000","INCLINATION":"53.0544","TIME_SYSTEM":"UTC","OBJECT_TYPE":"PAYLOAD","CLASSIFICATION_TYPE":"U"},{"CLASSIFICATION_TYPE":"U","OBJECT_TYPE":"PAYLOAD","TIME_SYSTEM":"UTC","INCLINATION":"53.0552","EPOCH":"2022-03-15T18:18:32.241888","PERIAPSIS":"546.242","MEAN_ELEMENT_THEORY":"SGP4","MEAN_MOTION_DDOT":"0.0000000000000","COUNTRY_CODE":"US","NORAD_CAT_ID":"48673","REV_AT_EPOCH":"4455","BSTAR":"0.00009696500000","LAUNCH_DATE":"2021-05-26","RCS_SIZE":"LARGE","ECCENTRICITY":"0.00014270","GP_ID":"198849177","MEAN_MOTION":"15.06394461","REF_FRAME":"TEME","ARG_OF_PERICENTER":"64.8272","MEAN_ANOMALY":"295.2865","RA_OF_ASC_NODE":"163.0342","SEMIMAJOR_AXIS":"6925.366","DECAY_DATE":null,"APOAPSIS":"548.219","MEAN_MOTION_DOT":"0.00001163","OBJECT_ID":"2021-044AM","CENTER_NAME":"EARTH","TLE_LINE1":"1 48673U 21044AM  22074.76287317  .00001163  00000-0  96965-4 0  9995","TLE_LINE2":"2 48673  53.0552 163.0342 0001427  64.8272 295.2865 15.06394461 44556","PERIOD":"95.592","SITE":"AFETR","FILE":"3360930","EPHEMERIS_TYPE":"0","OBJECT_NAME":"STARLINK-2711","ELEMENT_SET_NO":"999"}];
